SENTINEL-6              
1 46984U 20086A   24258.55049825 -.00000057  00000+0  15348-4 0  9993
2 46984  66.0442  25.6605 0007797 269.1618  90.8504 12.80931501178396
